ONEWEB-0319             
1 49105U 21075AG  25286.30491737 -.00000017  00000+0 -76636-4 0  9992
2 49105  87.9094  54.9709 0001765  83.2800 276.8532 13.17647932201090
ONEWEB-0323             
1 49106U 21075AH  25286.33723565 -.00000240  00000+0 -70317-3 0  9990
2 49106  87.8957  39.6805 0001883  78.1867 281.9472 13.12443161202175
ONEWEB-0329             
1 49107U 21075AJ  25286.31335151  .00000092  00000+0  20474-3 0  9991
2 49107  87.9092  54.9723 0001789  93.9181 266.2156 13.17651104201071
ONEWEB-0330             
1 49108U 21075AK  25286.31419095  .00000104  00000+0  23447-3 0  9999
2 49108  87.9094  54.9768 0001942  96.7796 263.3557 13.17651066201112
ONEWEB-0292             
1 49186U 21083A   25286.27397190 -.00000111  00000+0 -33969-3 0  9990
2 49186  87.9043   9.3298 0001749  95.4811 264.6518 13.13471186198512
ONEWEB-0303             
1 49187U 21083B   25286.25013681  .00000065  00000+0  13286-3 0  9995
2 49187  87.9230  24.4928 0001759  94.2868 265.8465 13.18686672197436
ONEWEB-0306             
1 49188U 21083C   25286.31611645  .00000100  00000+0  22000-3 0  9991
2 49188  87.9229  24.4652 0001877 106.8777 253.2561 13.18687636197483
ONEWEB-0307             
1 49189U 21083D   25286.26803486 -.00000256  00000+0 -73729-3 0  9990
2 49189  87.9034   9.3257 0001769 101.5389 258.5939 13.13468092198512
ONEWEB-0320             
1 49190U 21083E   25286.32277626  .00000087  00000+0  18758-3 0  9991
2 49190  87.9231  24.4923 0001806 100.7194 259.4141 13.18685654197444
ONEWEB-0321             
1 49191U 21083F   25286.15803365  .00000079  00000+0  16230-3 0  9992
2 49191  87.9224 323.6969 0002028 104.6776 255.4582 13.20770622204220
ONEWEB-0322             
1 49192U 21083G   25286.26381929 -.00000194  00000+0 -56684-3 0  9999
2 49192  87.9043   9.3262 0001826 117.5597 242.5718 13.13471218198505
ONEWEB-0324             
1 49193U 21083H   25286.30950924  .00000023  00000+0  24893-4 0  9999
2 49193  87.9228  24.4740 0001953  99.4366 260.6987 13.18683678197466
ONEWEB-0325             
1 49194U 21083J   25286.31282291  .00000016  00000+0  84798-5 0  9999
2 49194  87.9231  24.4912 0001751 103.6816 256.4511 13.18687384197471
ONEWEB-0326             
1 49195U 21083K   25286.32778369 -.00000144  00000+0 -39710-3 0  9993
2 49195  87.9226  24.4759 0001675  91.2134 268.9190 13.18687290197461
ONEWEB-0327             
1 49196U 21083L   25286.32753041  .00000056  00000+0  10819-3 0  9993
2 49196  87.9221  24.5003 0001501  91.1141 269.0163 13.18686610197484
ONEWEB-0328             
1 49197U 21083M   25286.25365256 -.00000140  00000+0 -41839-3 0  9995
2 49197  87.9054   9.2682 0001966  99.4973 260.6378 13.13470892198485
ONEWEB-0331             
1 49198U 21083N   25286.32106258  .00000074  00000+0  15396-3 0  9992
2 49198  87.9230  24.4697 0001853  89.0160 271.1185 13.18687585197470
